CSS (TIANHE)            
1 48274U 21035A   24039.56053722  .00043768  00000+0  46378-3 0  9992
2 48274  41.4681 155.1534 0008056 326.8105  33.2228 15.63281199158806
